COSMOS 2419 (714)       
1 28915U 05050A   17245.49441986  .00000022  00000-0  00000-0 0  9993
2 28915  65.5343  63.2489 0016006 358.6857 351.3355  2.13106733 90976
COSMOS 2425 (716)       
1 29670U 06062A   17245.57959617  .00000012  00000-0  10000-3 0  9993
2 29670  65.4221 302.2538 0019746 340.7353 126.3010  2.13104948 83186
COSMOS 2426 (717)       
1 29671U 06062B   17245.30656046  .00000010  00000-0  10000-3 0  9993
2 29671  65.4398 302.3546 0019072 169.9843 305.3499  2.13102933 83181
COSMOS 2424 (715)       
1 29672U 06062C   17245.46149498  .00000011  00000-0  10000-3 0  9990
2 29672  65.4236 302.2703 0018479 169.1985 240.1464  2.13102361 83189
COSMOS 2433 (720)       
1 32275U 07052A   17245.23292059  .00000021  00000-0  10000-3 0  9991
2 32275  65.5495  63.0373 0000667 201.3767 191.6753  2.13104605 76694
COSMOS 2432 (719)       
1 32276U 07052B   17245.30377317  .00000021  00000-0  10000-3 0  9991
2 32276  65.5602  63.1069 0010178 346.7608  53.3746  2.13103982 76697
COSMOS 2434 (721)       
1 32393U 07065A   17245.44742412  .00000012  00000-0  00000-0 0  9998
2 32393  65.0380 301.3706 0004227 143.7689 303.0709  2.13102951 75409
COSMOS 2436 (723)       
1 32395U 07065C   17245.43463829  .00000012  00000-0  10000-3 0  9995
2 32395  65.0475 301.4182 0013067 354.3265 131.7816  2.13104348 75336
COSMOS 2443 (725)       
1 33379U 08046B   17245.10382528  .00000020  00000-0  00000-0 0  9993
2 33379  65.4797  62.4173 0012759 175.4853  17.6255  2.13099639 69547
COSMOS 2456 (730)       
1 36111U 09070A   17245.34188064 -.00000011  00000-0  00000-0 0  9994
2 36111  64.1814 180.9386 0005711 304.0855 233.1525  2.13102978 60068
COSMOS 2457 (733)       
1 36112U 09070B   17245.18667340 -.00000011  00000-0  00000-0 0  9996
2 36112  64.1638 180.8606 0005996 183.6083   2.7713  2.13101759 60061
COSMOS 2458 (734)       
1 36113U 09070C   17245.44761524 -.00000011  00000-0  10000-3 0  9999
2 36113  64.1691 180.8608 0002170 316.1164 118.5104  2.13101899 60073
COSMOS 2459 (731)       
1 36400U 10007A   17245.43448723  .00000020  00000-0  10000-3 0  9991
2 36400  65.4577  62.1265 0026777 357.2809  51.8529  2.13102190 58422
COSMOS 2461 (735)       
1 36401U 10007B   17245.45693722  .00000020  00000-0  10000-3 0  9995
2 36401  65.4511  62.1038 0008770  75.7308 261.2449  2.13102192 58417
COSMOS 2460 (732)       
1 36402U 10007C   17245.43714690  .00000020  00000-0  10000-3 0  9992
2 36402  65.4412  62.0750 0002420  94.5362 268.3706  2.13101670 58428
COSMOS 2465 (737)       
1 37138U 10041B   17245.36597118  .00000011  00000-0  00000-0 0  9999
2 37138  64.6353 301.3214 0036583 171.5821 256.5110  2.13097486 54497
COSMOS 2464 (736)       
1 37139U 10041C   17245.25910203  .00000010  00000-0  00000-0 0  9991
2 37139  64.6431 301.3264 0021053  10.0755 160.0229  2.13102634 54480
COSMOS 2471 (701K)      
1 37372U 11009A   17245.30392365  .00000020  00000-0  00000-0 0  9995
2 37372  65.4390  62.0269 0006902 222.7303 175.7501  2.13107620 50690
COSMOS 2474 (742)       
1 37829U 11055A   17245.46423861 -.00000010  00000-0  00000+0 0  9995
2 37829  64.5058 181.5313 0009881 252.2060 238.3443  2.13101957 46066
COSMOS 2476 (744)       
1 37867U 11064A   17245.40555744 -.00000010  00000-0  00000+0 0  9997
2 37867  64.4853 181.6029 0019196 245.5657 245.9285  2.13101984 45418
COSMOS 2477 (745)       
1 37868U 11064B   17245.34772875 -.00000010  00000-0  00000-0 0  9998
2 37868  64.4941 181.6506 0017113 246.9930  19.2171  2.13101893 45362
COSMOS 2475 (743)       
1 37869U 11064C   17245.41326610 -.00000010  00000-0  00000-0 0  9999
2 37869  64.5017 181.6393 0021960 270.7977   2.1582  2.13102216 45371
COSMOS 2485 (747)       
1 39155U 13019A   17245.44427417 -.00000010  00000-0  00000+0 0  9990
2 39155  64.6554 181.6481 0019597 240.5268 325.6667  2.13102077 33882
COSMOS 2492 (754)       
1 39620U 14012A   17245.40420916  .00000019  00000-0  10000-3 0  9997
2 39620  65.3322  62.0029 0013417 339.0806 230.6868  2.13103375 26834
COSMOS 2500 (755)       
1 40001U 14032A   17245.37080368  .00000019  00000-0  00000-0 0  9999
2 40001  65.2717  61.9944 0005646 183.1374 223.8971  2.13102804 25051
COSMOS 2501 (702K)      
1 40315U 14075A   17245.17626176  .00000006  00000-0  00000-0 0  9991
2 40315  64.3697 302.6445 0016744 208.9679 213.8860  2.13098651 21452
COSMOS 2514 (751)       
1 41330U 16008A   17245.32964638  .00000019  00000-0  00000-0 0  9996
2 41330  65.0718  62.1204 0008348 201.8769 353.7596  2.13103328 12218
COSMOS 2516 (753)       
1 41554U 16032A   17245.37095531  .00000008  00000-0  00000-0 0  9991
2 41554  64.5890 302.4222 0014021 219.4256 260.0930  2.13101581  9826
